NORAD_CAT_ID,OBJECT_NAME,OBJECT_TYPE,EPOCH,MEAN_MOTION,ECCENTRICITY,INCLINATION,RA_OF_ASC_NODE,ARG_OF_PERICENTER,MEAN_ANOMALY,BSTAR,MEAN_MOTION_DOT,MEAN_MOTION_DDOT,TLE_LINE0,TLE_LINE1,TLE_LINE2,SEMIMAJOR_AXIS,PERIOD,APOGEE,PERIGEE,DECAYED
55743.0,STARLINK-5602,PAYLOAD,2024-02-29 23:23:32,14.98329866,0.0002938,70.0003,307.1881,267.6517,92.4306,0.00012535,1.403e-05,0.0,0 STARLINK-5602,1 55743U 23028C   24060.97468542  .00001403  00000-0  12535-3 0  9993,2 55743  70.0003 307.1881 0002938 267.6517  92.4306 14.98329866 55381,6950.193,96.107,574.1,570.016,0.0
55743.0,STARLINK-5602,PAYLOAD,2024-03-01 09:00:21,14.98330372,0.0002902,70.0003,306.1781,267.9521,92.1305,0.00012598,1.41e-05,0.0,0 STARLINK-5602,1 55743U 23028C   24061.37524588  .00001410  00000-0  12598-3 0  9998,2 55743  70.0003 306.1781 0002902 267.9521  92.1305 14.98330372 55445,6950.192,96.107,574.074,570.04,0.0
55743.0,STARLINK-5602,PAYLOAD,2024-03-01 20:13:17,14.98334965,0.000286,70.0004,304.9999,268.8139,91.2693,0.00011678,1.301e-05,0.0,0 STARLINK-5602,1 55743U 23028C   24061.84256264  .00001301  00000-0  11678-3 0  9990,2 55743  70.0004 304.9999 0002860 268.8139  91.2693 14.98334965 55511,6950.178,96.107,574.03,570.055,0.0
55743.0,STARLINK-5602,PAYLOAD,2024-03-01 21:49:25,14.98334416,0.0002872,70.0002,304.8316,268.6095,91.4735,0.00010993,1.219e-05,0.0,0 STARLINK-5602,1 55743U 23028C   24061.90932303  .00001219  00000-0  10993-3 0  9999,2 55743  70.0002 304.8316 0002872 268.6095  91.4735 14.98334416 55524,6950.179,96.107,574.04,570.048,0.0
55743.0,STARLINK-5602,PAYLOAD,2024-03-02 01:01:40,14.98360166,0.0002617,70.0002,304.4947,273.4638,86.6222,-0.00030534,-3.737e-05,0.0,0 STARLINK-5602,1 55743U 23028C   24062.04283263 -.00003737  00000-0 -30534-3 0  9991,2 55743  70.0002 304.4947 0002617 273.4638  86.6222 14.98360166 55544,6950.1,96.105,573.783,570.146,0.0
55743.0,STARLINK-5602,PAYLOAD,2024-03-02 20:15:18,14.98336801,0.0002894,69.9998,302.4743,270.7231,89.3596,9.6705e-05,1.061e-05,0.0,0 STARLINK-5602,1 55743U 23028C   24062.84395948  .00001061  00000-0  96705-4 0  9992,2 55743  69.9998 302.4743 0002894 270.7231  89.3596 14.98336801 55669,6950.172,96.107,574.048,570.025,0.0
55743.0,STARLINK-5602,PAYLOAD,2024-03-02 21:51:26,14.98336131,0.0002914,69.9997,302.3059,271.0058,89.0767,8.6719e-05,9.42e-06,0.0,0 STARLINK-5602,1 55743U 23028C   24062.91071976  .00000942  00000-0  86719-4 0  9993,2 55743  69.9997 302.3059 0002914 271.0058  89.0767 14.98336131 55675,6950.174,96.107,574.064,570.014,0.0
55743.0,STARLINK-5602,PAYLOAD,2024-03-03 09:04:23,14.98325278,0.0002912,69.9996,301.1276,273.0546,87.028,0.00020579,2.363e-05,0.0,0 STARLINK-5602,1 55743U 23028C   24063.37804489  .00002363  00000-0  20579-3 0  9997,2 55743  69.9996 301.1276 0002912 273.0546  87.0280 14.98325278 55740,6950.207,96.107,574.096,570.049,0.0
55743.0,STARLINK-5602,PAYLOAD,2024-03-03 15:28:55,14.98328446,0.000285,69.9998,300.4548,271.3435,88.7397,2.5504e-05,2.11e-06,0.0,0 STARLINK-5602,1 55743U 23028C   24063.64508496  .00000211  00000-0  25504-4 0  9990,2 55743  69.9998 300.4548 0002850 271.3435  88.7397 14.98328446 55786,6950.198,96.107,574.044,570.082,0.0
55743.0,STARLINK-5602,PAYLOAD,2024-03-03 20:17:19,14.98331418,0.0002768,70.0002,299.9512,269.0477,91.0365,1.2492e-05,5.6e-07,0.0,0 STARLINK-5602,1 55743U 23028C   24063.84536327  .00000056  00000-0  12492-4 0  9995,2 55743  70.0002 299.9512 0002768 269.0477  91.0365 14.98331418 55815,6950.189,96.107,573.977,570.13,0.0
55743.0,STARLINK-5602,PAYLOAD,2024-03-04 09:06:23,14.9833524,0.0002698,69.9995,298.6042,273.6917,86.3934,2.1076e-05,1.59e-06,0.0,0 STARLINK-5602,1 55743U 23028C   24064.37943998  .00000159  00000-0  21076-4 0  9992,2 55743  69.9995 298.6042 0002698 273.6917  86.3934 14.98335240 55893,6950.177,96.107,573.917,570.167,0.0
55743.0,STARLINK-5602,PAYLOAD,2024-03-04 21:55:27,14.98334052,0.0002832,69.9995,297.2556,265.7807,94.3029,8.0632e-05,8.69e-06,0.0,0 STARLINK-5602,1 55743U 23028C   24064.91351760  .00000869  00000-0  80632-4 0  9993,2 55743  69.9995 297.2556 0002832 265.7807  94.3029 14.98334052 55971,6950.18,96.107,574.014,570.077,0.0
55743.0,STARLINK-5602,PAYLOAD,2024-03-05 13:56:49,14.9832042,0.0003116,69.9998,295.5725,267.5699,92.5103,0.00019462,2.229e-05,0.0,0 STARLINK-5602,1 55743U 23028C   24065.58112386  .00002229  00000-0  19462-3 0  9990,2 55743  69.9998 295.5725 0003116 267.5699  92.5103 14.98320420 56077,6950.223,96.108,574.253,569.922,0.0
55743.0,STARLINK-5602,PAYLOAD,2024-03-05 20:21:21,14.98323615,0.000285,69.9997,294.8989,269.4001,90.6832,5.6387e-05,5.8e-06,0.0,0 STARLINK-5602,1 55743U 23028C   24065.84816581  .00000580  00000-0  56387-4 0  9993,2 55743  69.9997 294.8989 0002850 269.4001  90.6832 14.98323615 56114,6950.213,96.107,574.058,570.097,0.0
55743.0,STARLINK-5602,PAYLOAD,2024-03-06 13:58:49,14.98333216,0.0002909,69.9997,293.0474,267.7902,92.2924,6.0882e-05,6.34e-06,0.0,0 STARLINK-5602,1 55743U 23028C   24066.58252033  .00000634  00000-0  60882-4 0  9996,2 55743  69.9997 293.0474 0002909 267.7902  92.2924 14.98333216 56220,6950.183,96.107,574.07,570.026,0.0
55743.0,STARLINK-5602,PAYLOAD,2024-03-06 18:47:13,14.98333584,0.0002952,69.9995,292.5427,268.1309,91.9512,6.5848e-05,6.93e-06,0.0,0 STARLINK-5602,1 55743U 23028C   24066.78279952  .00000693  00000-0  65848-4 0  9999,2 55743  69.9995 292.5427 0002952 268.1309  91.9512 14.98333584 56254,6950.182,96.107,574.099,569.995,0.0
55743.0,STARLINK-5602,PAYLOAD,2024-03-07 07:36:18,14.98329157,0.0003022,69.9995,291.1966,269.6666,90.4146,6.2468e-05,6.52e-06,0.0,0 STARLINK-5602,1 55743U 23028C   24067.31688171  .00000652  00000-0  62468-4 0  9996,2 55743  69.9995 291.1966 0003022 269.6666  90.4146 14.98329157 56335,6950.195,96.107,574.161,569.96,0.0
55743.0,STARLINK-5602,PAYLOAD,2024-03-08 01:13:47,14.98329142,0.0003052,69.9994,289.3453,268.215,91.8659,0.00012376,1.384e-05,0.0,0 STARLINK-5602,1 55743U 23028C   24068.05124183  .00001384  00000-0  12376-3 0  9991,2 55743  69.9994 289.3453 0003052 268.2150  91.8659 14.98329142 56440,6950.196,96.107,574.182,569.939,0.0
55743.0,STARLINK-5602,PAYLOAD,2024-03-08 14:02:51,14.98334454,0.0003048,69.9993,287.9986,268.3276,91.7534,5.935e-05,6.15e-06,0.0,0 STARLINK-5602,1 55743U 23028C   24068.58531979  .00000615  00000-0  59350-4 0  9994,2 55743  69.9993 287.9986 0003048 268.3276  91.7534 14.98334454 56521,6950.179,96.107,574.163,569.926,0.0
55743.0,STARLINK-5602,PAYLOAD,2024-03-09 01:15:47,14.98337513,0.0003032,69.9992,286.8202,268.1451,91.9361,8.5342e-05,9.26e-06,0.0,0 STARLINK-5602,1 55743U 23028C   24069.05263553  .00000926  00000-0  85342-4 0  9992,2 55743  69.9992 286.8202 0003032 268.1451  91.9361 14.98337513 56591,6950.17,96.107,574.142,569.927,0.0
55743.0,STARLINK-5602,PAYLOAD,2024-03-09 07:40:20,14.98333594,0.0003003,69.9995,286.147,267.0134,93.0681,6.6817e-05,7.04e-06,0.0,0 STARLINK-5602,1 55743U 23028C   24069.31967803  .00000704  00000-0  66817-4 0  9990,2 55743  69.9995 286.1470 0003003 267.0134  93.0681 14.98333594 56636,6950.182,96.107,574.134,569.96,0.0
55743.0,STARLINK-5602,PAYLOAD,2024-03-09 20:29:24,14.98329651,0.0003017,69.9992,284.7999,267.1539,92.9275,3.6282e-05,3.4e-06,0.0,0 STARLINK-5602,1 55743U 23028C   24069.85376055  .00000340  00000-0  36282-4 0  9991,2 55743  69.9992 284.7999 0003017 267.1539  92.9275 14.98329651 56713,6950.194,96.107,574.156,569.962,0.0
55743.0,STARLINK-5602,PAYLOAD,2024-03-09 23:41:40,14.98330403,0.0002998,69.9992,284.4632,267.2902,92.7914,4.3136e-05,4.22e-06,0.0,0 STARLINK-5602,1 55743U 23028C   24069.98727987  .00000422  00000-0  43136-4 0  9996,2 55743  69.9992 284.4632 0002998 267.2902  92.7914 14.98330403 56733,6950.192,96.107,574.14,569.973,0.0
55743.0,STARLINK-5602,PAYLOAD,2024-03-10 07:42:21,14.98331351,0.0002972,69.9984,283.6207,268.3237,91.7581,2.1601e-05,1.65e-06,0.0,0 STARLINK-5602,1 55743U 23028C   24070.32107960  .00000165  00000-0  21601-4 0  9996,2 55743  69.9984 283.6207 0002972 268.3237  91.7581 14.98331351 56785,6950.189,96.107,574.119,569.988,0.0
55743.0,STARLINK-5602,PAYLOAD,2024-03-10 22:07:33,14.98330811,0.0002744,69.9996,282.1052,268.7125,91.3719,1.3363e-05,6.6e-07,0.0,0 STARLINK-5602,1 55743U 23028C   24070.92192026  .00000066  00000-0  13363-4 0  9995,2 55743  69.9996 282.1052 0002744 268.7125  91.3719 14.98330811 56876,6950.19,96.107,573.963,570.148,0.0
55743.0,STARLINK-5602,PAYLOAD,2024-03-10 23:43:41,14.98330801,0.0002774,69.9995,281.9369,268.6564,91.4278,1.4259e-05,7.7e-07,0.0,0 STARLINK-5602,1 55743U 23028C   24070.98868008  .00000077  00000-0  14259-4 0  9998,2 55743  69.9995 281.9369 0002774 268.6564  91.4278 14.98330801 56883,6950.19,96.107,573.983,570.127,0.0
55743.0,STARLINK-5602,PAYLOAD,2024-03-11 07:44:22,14.98331106,0.0003,69.9991,281.0955,267.9796,92.102,2.1075e-05,1.58e-06,0.0,0 STARLINK-5602,1 55743U 23028C   24071.32247884  .00000158  00000-0  21075-4 0  9994,2 55743  69.9991 281.0955 0003000 267.9796  92.1020 14.98331106 56931,6950.189,96.107,574.14,569.969,0.0
55743.0,STARLINK-5602,PAYLOAD,2024-03-11 20:33:27,14.98283396,0.0002921,69.999,279.7497,274.2329,85.8496,0.00084309,9.969e-05,0.0,0 STARLINK-5602,1 55743U 23028C   24071.85656444  .00009969  00000-0  84309-3 0  9995,2 55743  69.9990 279.7497 0002921 274.2329  85.8496 14.98283396 57012,6950.337,96.11,574.232,570.172,0.0
55743.0,STARLINK-5602,PAYLOAD,2024-03-11 23:45:42,14.98329622,0.0003025,69.9989,279.413,269.5112,90.5701,6.0786e-05,6.32e-06,0.0,0 STARLINK-5602,1 55743U 23028C   24071.99007909  .00000632  00000-0  60786-4 0  9998,2 55743  69.9989 279.4130 0003025 269.5112  90.5701 14.98329622 57031,6950.194,96.107,574.161,569.957,0.0
55743.0,STARLINK-5602,PAYLOAD,2024-03-12 20:35:27,14.98332021,0.0002998,69.9991,277.2246,270.0012,90.0804,6.8944e-05,7.3e-06,0.0,0 STARLINK-5602,1 55743U 23028C   24072.85795770  .00000730  00000-0  68944-4 0  9997,2 55743  69.9991 277.2246 0002998 270.0012  90.0804 14.98332021 57162,6950.187,96.107,574.135,569.968,0.0
